{
  "type": "FeatureCollection",
  "features": [
    {
      "type": "Feature",
      "properties": {
        "norad_id": 30708,
        "name": "FENGYUN 1C DEB",
        "group": "fengyun-1c-debris",
        "lat": 24.48391916446257,
        "lon": 178.14139276954614,
        "alt_km": 848.3140106294923,
        "timestamp": "2025-12-06T07:31:40.515163+00:00",
        "meta_object_name": "FENGYUN 1C DEB",
        "meta_object_id": "1999-025ARS",
        "meta_epoch": "2025-12-05T07:03:46.618848",
        "meta_mean_motion": 14.12172314,
        "meta_eccentricity": 0.00077254,
        "meta_inclination": 98.6908,
        "meta_ra_of_asc_node": 353.1592,
        "meta_arg_of_pericenter": 216.6264,
        "meta_mean_anomaly": 159.1448,
        "meta_ephemeris_type": 0,
        "meta_classification_type": "U",
        "meta_norad_cat_id": 30708,
        "meta_element_set_no": 999,
        "meta_rev_at_epoch": 96731,
        "meta_bstar": 0.00024603264,
        "meta_mean_motion_dot": 4.09e-06,
        "meta_mean_motion_ddot": 0,
        "tle_line1": "1 30708U 99025ARS 25339.29428957  .00000409  00000+0  24603-3 0  9991",
        "tle_line2": "2 30708  98.6908 353.1592 0007725 216.6264 159.1448 14.12172314967310"
      },
      "geometry": {
        "type": "Point",
        "coordinates": [
          178.14139276954614,
          24.48391916446257
        ]
      }
    },
    {
      "type": "Feature",
      "properties": {
        "norad_id": 30709,
        "name": "FENGYUN 1C DEB",
        "group": "fengyun-1c-debris",
        "lat": 60.79499106252143,
        "lon": -58.65961139542942,
        "alt_km": 869.6185788219964,
        "timestamp": "2025-12-06T07:31:40.515173+00:00",
        "meta_object_name": "FENGYUN 1C DEB",
        "meta_object_id": "1999-025ART",
        "meta_epoch": "2025-12-05T04:07:37.877952",
        "meta_mean_motion": 14.17346614,
        "meta_eccentricity": 0.00833178,
        "meta_inclination": 99.1435,
        "meta_ra_of_asc_node": 316.9115,
        "meta_arg_of_pericenter": 291.6369,
        "meta_mean_anomaly": 67.5946,
        "meta_ephemeris_type": 0,
        "meta_classification_type": "U",
        "meta_norad_cat_id": 30709,
        "meta_element_set_no": 999,
        "meta_rev_at_epoch": 95889,
        "meta_bstar": 0.0053161994,
        "meta_mean_motion_dot": 0.00011095,
        "meta_mean_motion_ddot": 0,
        "tle_line1": "1 30709U 99025ART 25339.17196618  .00011095  00000+0  53162-2 0  9999",
        "tle_line2": "2 30709  99.1435 316.9115 0083317 291.6369  67.5946 14.17346614958899"
      },
      "geometry": {
        "type": "Point",
        "coordinates": [
          -58.65961139542942,
          60.79499106252143
        ]
      }
    },
    {
      "type": "Feature",
      "properties": {
        "norad_id": 30710,
        "name": "FENGYUN 1C DEB",
        "group": "fengyun-1c-debris",
        "lat": 63.69476122625918,
        "lon": 74.35600340800016,
        "alt_km": 750.5230477152691,
        "timestamp": "2025-12-06T07:31:40.515183+00:00",
        "meta_object_name": "FENGYUN 1C DEB",
        "meta_object_id": "1999-025ARU",
        "meta_epoch": "2025-12-04T11:03:50.889888",
        "meta_mean_motion": 13.94066259,
        "meta_eccentricity": 0.0222726,
        "meta_inclination": 102.7466,
        "meta_ra_of_asc_node": 224.5575,
        "meta_arg_of_pericenter": 102.9253,
        "meta_mean_anomaly": 76.0711,
        "meta_ephemeris_type": 0,
        "meta_classification_type": "U",
        "meta_norad_cat_id": 30710,
        "meta_element_set_no": 999,
        "meta_rev_at_epoch": 94673,
        "meta_bstar": 0.0042718,
        "meta_mean_motion_dot": 6.883e-05,
        "meta_mean_motion_ddot": 0,
        "tle_line1": "1 30710U 99025ARU 25338.46100567  .00006883  00000+0  42718-2 0  9994",
        "tle_line2": "2 30710 102.7466 224.5575 0222726 102.9253  76.0711 13.94066259946738"
      },
      "geometry": {
        "type": "Point",
        "coordinates": [
          74.35600340800016,
          63.69476122625918
        ]
      }
    },
    {
      "type": "Feature",
      "properties": {
        "norad_id": 30714,
        "name": "FENGYUN 1C DEB",
        "group": "fengyun-1c-debris",
        "lat": -66.94668974995078,
        "lon": -172.42352209039726,
        "alt_km": 859.7540108363564,
        "timestamp": "2025-12-06T07:31:40.515194+00:00",
        "meta_object_name": "FENGYUN 1C DEB",
        "meta_object_id": "1999-025ARY",
        "meta_epoch": "2025-12-05T00:06:03.057120",
        "meta_mean_motion": 14.03271868,
        "meta_eccentricity": 0.00668681,
        "meta_inclination": 98.8384,
        "meta_ra_of_asc_node": 27.7494,
        "meta_arg_of_pericenter": 304.4857,
        "meta_mean_anomaly": 173.2314,
        "meta_ephemeris_type": 0,
        "meta_classification_type": "U",
        "meta_norad_cat_id": 30714,
        "meta_element_set_no": 999,
        "meta_rev_at_epoch": 95884,
        "meta_bstar": 0.001157356,
        "meta_mean_motion_dot": 1.798e-05,
        "meta_mean_motion_ddot": 0,
        "tle_line1": "1 30714U 99025ARY 25339.00420205  .00001798  00000+0  11574-2 0  9999",
        "tle_line2": "2 30714  98.8384  27.7494 0066868 304.4857 173.2314 14.03271868958840"
      },
      "geometry": {
        "type": "Point",
        "coordinates": [
          -172.42352209039726,
          -66.94668974995078
        ]
      }
    },
    {
      "type": "Feature",
      "properties": {
        "norad_id": 30715,
        "name": "FENGYUN 1C DEB",
        "group": "fengyun-1c-debris",
        "lat": -29.7743122644495,
        "lon": -135.7474697586402,
        "alt_km": 804.6364176044299,
        "timestamp": "2025-12-06T07:31:40.515204+00:00",
        "meta_object_name": "FENGYUN 1C DEB",
        "meta_object_id": "1999-025ARZ",
        "meta_epoch": "2025-12-05T03:22:42.966912",
        "meta_mean_motion": 14.14610938,
        "meta_eccentricity": 0.00678695,
        "meta_inclination": 98.978,
        "meta_ra_of_asc_node": 48.2627,
        "meta_arg_of_pericenter": 189.2997,
        "meta_mean_anomaly": 170.6924,
        "meta_ephemeris_type": 0,
        "meta_classification_type": "U",
        "meta_norad_cat_id": 30715,
        "meta_element_set_no": 999,
        "meta_rev_at_epoch": 96074,
        "meta_bstar": 0.0040255438,
        "meta_mean_motion_dot": 7.871e-05,
        "meta_mean_motion_ddot": 0,
        "tle_line1": "1 30715U 99025ARZ 25339.14077508  .00007871  00000+0  40255-2 0  9995",
        "tle_line2": "2 30715  98.9780  48.2627 0067869 189.2997 170.6924 14.14610938960741"
      },
      "geometry": {
        "type": "Point",
        "coordinates": [
          -135.7474697586402,
          -29.7743122644495
        ]
      }
    },
    {
      "type": "Feature",
      "properties": {
        "norad_id": 30716,
        "name": "FENGYUN 1C DEB",
        "group": "fengyun-1c-debris",
        "lat": -25.064519176663172,
        "lon": 166.90494541964085,
        "alt_km": 647.8324007278197,
        "timestamp": "2025-12-06T07:31:40.515214+00:00",
        "meta_object_name": "FENGYUN 1C DEB",
        "meta_object_id": "1999-025ASA",
        "meta_epoch": "2025-12-05T04:18:44.667360",
        "meta_mean_motion": 14.78677008,
        "meta_eccentricity": 0.00199957,
        "meta_inclination": 98.8714,
        "meta_ra_of_asc_node": 161.4669,
        "meta_arg_of_pericenter": 108.8948,
        "meta_mean_anomaly": 312.8937,
        "meta_ephemeris_type": 0,
        "meta_classification_type": "U",
        "meta_norad_cat_id": 30716,
        "meta_element_set_no": 999,
        "meta_rev_at_epoch": 97712,
        "meta_bstar": 0.0070285312,
        "meta_mean_motion_dot": 0.00052022,
        "meta_mean_motion_ddot": 0,
        "tle_line1": "1 30716U 99025ASA 25339.17968365  .00052022  00000+0  70285-2 0  9993",
        "tle_line2": "2 30716  98.8714 161.4669 0019995 108.8948 312.8937 14.78677008977127"
      },
      "geometry": {
        "type": "Point",
        "coordinates": [
          166.90494541964085,
          -25.064519176663172
        ]
      }
    },
    {
      "type": "Feature",
      "properties": {
        "norad_id": 30717,
        "name": "FENGYUN 1C DEB",
        "group": "fengyun-1c-debris",
        "lat": 80.00119029423287,
        "lon": -13.307881798513762,
        "alt_km": 849.6524285491842,
        "timestamp": "2025-12-06T07:31:40.515224+00:00",
        "meta_object_name": "FENGYUN 1C DEB",
        "meta_object_id": "1999-025ASB",
        "meta_epoch": "2025-12-05T04:04:33.245472",
        "meta_mean_motion": 14.20475335,
        "meta_eccentricity": 0.00471186,
        "meta_inclination": 99.0173,
        "meta_ra_of_asc_node": 49.7739,
        "meta_arg_of_pericenter": 279.3181,
        "meta_mean_anomaly": 80.2668,
        "meta_ephemeris_type": 0,
        "meta_classification_type": "U",
        "meta_norad_cat_id": 30717,
        "meta_element_set_no": 999,
        "meta_rev_at_epoch": 96429,
        "meta_bstar": 0.002820126,
        "meta_mean_motion_dot": 6.078e-05,
        "meta_mean_motion_ddot": 0,
        "tle_line1": "1 30717U 99025ASB 25339.16982923  .00006078  00000+0  28201-2 0  9990",
        "tle_line2": "2 30717  99.0173  49.7739 0047118 279.3181  80.2668 14.20475335964294"
      },
      "geometry": {
        "type": "Point",
        "coordinates": [
          -13.307881798513762,
          80.00119029423287
        ]
      }
    }
  ]
}